OBJECT C                
1 57582U 23117C   25258.31992325  .00013115  00000+0  48976-3 0  9994
2 57582  97.4374 332.9245 0009826 133.5217 226.6840 15.27463439116424
